[{"OBJECT_NAME":"STARLINK-4383","OBJECT_ID":"2022-099J","EPOCH":"2026-03-09T20:35:10.006080","MEAN_MOTION":15.05647582,"ECCENTRICITY":0.00015171,"INCLINATION":97.6031,"RA_OF_ASC_NODE":191.4216,"ARG_OF_PERICENTER":96.7823,"MEAN_ANOMALY":263.3576,"EPHEMERIS_TYPE":0,"CLASSIFICATION_TYPE":"U","NORAD_CAT_ID":53473,"ELEMENT_SET_NO":999,"REV_AT_EPOCH":19607,"BSTAR":3.6060581e-5,"MEAN_MOTION_DOT":4.6e-6,"MEAN_MOTION_DDOT":0},{"OBJECT_NAME":"CZ-2D DEB","OBJECT_ID":"2017-060C","EPOCH":"2026-03-09T12:36:22.356864","MEAN_MOTION":15.07716497,"ECCENTRICITY":0.0018685,"INCLINATION":98.2453,"RA_OF_ASC_NODE":267.9231,"ARG_OF_PERICENTER":71.2095,"MEAN_ANOMALY":289.1156,"EPHEMERIS_TYPE":0,"CLASSIFICATION_TYPE":"U","NORAD_CAT_ID":44610,"ELEMENT_SET_NO":999,"REV_AT_EPOCH":45422,"BSTAR":0.00057216024,"MEAN_MOTION_DOT":8.702e-5,"MEAN_MOTION_DDOT":0}]
